FENGYUN 1C DEB          
1 30522U 99025AJL 17345.88691341  .00000936  00000-0  24907-3 0  9990
2 30522  99.4051  52.1173 0074867 289.1612 123.4738 14.49769131571581
